OSCAR 7 (AO-7)          
1 07530U 74089B   26176.99926536 -.00000032  00000+0  91535-4 0  9996
2 07530 101.9899 190.3377 0012641 113.8156 301.9160 12.53698192361627
PHASE 3B (AO-10)        
1 14129U 83058B   26174.68191131 -.00000085  00000+0  00000+0 0  9993
2 14129  25.9176 218.4895 6008564 117.4551 314.9460  2.05872578295624
UOSAT 2 (UO-11)         
1 14781U 84021B   26177.14831319  .00001146  00000+0  12217-3 0  9996
2 14781  97.8061 142.6230 0008417 144.7362 215.4415 14.90804114258468
LUSAT (LO-19)           
1 20442U 90005G   26176.97281661  .00000107  00000+0  54892-4 0  9997
2 20442  98.8847 199.0205 0011632 174.9940 185.1362 14.34125571903653
EYESAT A (AO-27)        
1 22825U 93061C   26177.15989309  .00000085  00000+0  49164-4 0  9995
2 22825  98.6877 244.5701 0009507  76.6745 283.5497 14.30944439708289
ITAMSAT (IO-26)         
1 22826U 93061D   26176.71721110  .00000085  00000+0  48755-4 0  9996
2 22826  98.6824 244.0459 0009906  62.8375 297.3817 14.31371492708537
RADIO ROSTO (RS15)      
1 23439U 94085A   26176.98488985 -.00000055  00000+0 -35815-3 0  9994
2 23439  64.8184 288.9880 0156239   2.2471 357.9123 11.27583444296892
JAS-2 (FO-29)           
1 24278U 96046B   26177.10925093 -.00000015  00000+0  17983-4 0  9998
2 24278  98.5233  24.7588 0350906  73.3487 290.5866 13.53274757474379
TECHSAT 1B (GO-32)      
1 25397U 98043D   26176.98524631  .00000059  00000+0  45556-4 0  9992
2 25397  99.0071 169.9659 0001499 146.3485 213.7789 14.24429963452588
ISS (ZARYA)             
1 25544U 98067A   26177.15504249  .00009461  00000+0  17697-3 0  9995
2 25544  51.6325 255.7018 0004359 233.1468 126.9121 15.49434803573143
PCSAT (NO-44)           
1 26931U 01043C   26177.16936101  .00000086  00000+0  63208-4 0  9995
2 26931  67.0493 221.0400 0006040 265.0917  94.9495 14.31958797291737
SAUDISAT 1C (SO-50)     
1 27607U 02058C   26177.12374630  .00000891  00000+0  12242-3 0  9997
2 27607  64.5520 101.3361 0075052 260.8049  98.4562 14.83064330265783
CUTE-1 (CO-55)          
1 27844U 03031E   26176.95866144  .00000278  00000+0  13913-3 0  9993
2 27844  98.6736 185.4073 0010067 153.3060 206.8639 14.24340671192925
CUBESAT XI-IV (CO-57)   
1 27848U 03031J   26176.95152157  .00000236  00000+0  12262-3 0  9999
2 27848  98.6767 185.1059 0009591 171.2745 188.8601 14.23625133192626
MOZHAETS 4 (RS22)       
1 27939U 03042A   26177.18955508  .00001172  00000+0  18861-3 0  9990
2 27939  98.3474   1.8029 0010008 237.5087 256.0760 14.73482348216872
CUBESAT XI-V            
1 28895U 05043F   26177.16763213  .00001420  00000+0  23083-3 0  9991
2 28895  98.2992 332.9782 0014260 172.0864 188.0570 14.72654217103077
CUTE-1.7+APD II (CO-65) 
1 32785U 08021C   26177.13150528  .00005311  00000+0  33500-3 0  9997
2 32785  97.8274 158.7363 0008876  11.8125 348.3310 15.09532817986549
SEEDS II (CO-66)        
1 32791U 08021J   26176.94816340  .00021509  00000+0  67552-3 0  9994
2 32791  97.7517 175.2655 0000427 222.9381 137.1827 15.33033686988632
YUBILEINY (RS30)        
1 32953U 08025A   26177.19248263  .00000071  00000+0  44185-3 0  9997
2 32953  82.5047 349.8376 0018580 293.2108  66.7015 12.43180016820817
KKS-1 (KISEKI)          
1 33499U 09002H   26177.09461227  .00001238  00000+0  15862-3 0  9991
2 33499  98.1187  99.6780 0006373 260.5600  99.4893 14.83144642937515
SWISSCUBE               
1 35932U 09051B   26176.72079970  .00000938  00000+0  19487-3 0  9991
2 35932  98.4029  84.7576 0006581 174.6664 185.4608 14.62496515890403
BEESAT-1                
1 35933U 09051C   26176.73467954  .00000781  00000+0  16647-3 0  9997
2 35933  98.3958  84.3893 0004779 186.3683 173.7458 14.61733092890439
ITUPSAT1                
1 35935U 09051E   26176.73305610  .00000715  00000+0  15762-3 0  9993
2 35935  98.4042  83.5704 0006692 203.3862 156.7034 14.60452303889984
XIWANG-1 (HOPE-1)       
1 36122U 09072B   26177.13577743  .00000344  00000+0  10182-2 0  9996
2 36122 100.4023 130.8249 0007042 209.3724 150.6994 13.16441509794180
O/OREOS (USA 219)       
1 37224U 10062C   26177.10301756  .00002323  00000+0  22455-3 0  9993
2 37224  71.9714  60.1433 0012894  44.0808 316.1388 14.93779064117979
JUGNU                   
1 37839U 11058B   26176.56637228  .00000404  00000+0  71365-4 0  9999
2 37839  19.9600 257.5233 0018497 168.3639 315.1616 14.13778751760212
SRMSAT                  
1 37841U 11058D   26177.21996469  .00000369  00000+0  56732-4 0  9991
2 37841  19.9735   4.7963 0011715 303.6491 228.3381 14.11577318759094
STRAND-1                
1 39090U 13009E   26176.96758522  .00000274  00000+0  10651-3 0  9998
2 39090  98.3924 356.9858 0008211 196.9027 163.1888 14.37168122698326
ZACUBE-1 (TSHEPISOSAT)  
1 39417U 13066B   26177.20569669  .00003428  00000+0  26694-3 0  9992
2 39417  97.8049 139.5889 0042047 216.9401 142.8926 15.01234415682088
GOMX-1                  
1 39430U 13066Q   26177.10607637  .00001851  00000+0  28189-3 0  9993
2 39430  97.6486  17.0060 0129845  49.2490 311.9902 14.69488396671223
